{
  "type": "FeatureCollection",
  "features": [
    {
      "type": "Feature",
      "properties": {
        "norad_id": 34972,
        "name": "COSMOS 2251 DEB",
        "group": "cosmos-2251-debris",
        "lat": -70.44674093012193,
        "lon": -84.32258166725097,
        "alt_km": 646.2858139005457,
        "timestamp": "2025-12-16T21:38:57.570981+00:00",
        "meta_object_name": "COSMOS 2251 DEB",
        "meta_object_id": "1993-036AFB",
        "meta_epoch": "2025-12-15T10:19:31.579968",
        "meta_mean_motion": 14.72931379,
        "meta_eccentricity": 0.00334754,
        "meta_inclination": 73.9887,
        "meta_ra_of_asc_node": 44.6018,
        "meta_arg_of_pericenter": 203.2448,
        "meta_mean_anomaly": 173.7883,
        "meta_ephemeris_type": 0,
        "meta_classification_type": "U",
        "meta_norad_cat_id": 34972,
        "meta_element_set_no": 999,
        "meta_rev_at_epoch": 87690,
        "meta_bstar": 0.00082603298,
        "meta_mean_motion_dot": 5.315e-05,
        "meta_mean_motion_ddot": 0,
        "tle_line1": "1 34972U 93036AFB 25349.43022662  .00005315  00000+0  82603-3 0  9999",
        "tle_line2": "2 34972  73.9887  44.6018 0033475 203.2448 173.7883 14.72931379876900"
      },
      "geometry": {
        "type": "Point",
        "coordinates": [
          -84.32258166725097,
          -70.44674093012193
        ]
      }
    },
    {
      "type": "Feature",
      "properties": {
        "norad_id": 34976,
        "name": "COSMOS 2251 DEB",
        "group": "cosmos-2251-debris",
        "lat": 45.28999293713075,
        "lon": -45.11256538926626,
        "alt_km": 620.6704210883627,
        "timestamp": "2025-12-16T21:38:57.570992+00:00",
        "meta_object_name": "COSMOS 2251 DEB",
        "meta_object_id": "1993-036AFF",
        "meta_epoch": "2025-12-16T07:21:50.611392",
        "meta_mean_motion": 14.76647616,
        "meta_eccentricity": 0.00478142,
        "meta_inclination": 74.0567,
        "meta_ra_of_asc_node": 299.2671,
        "meta_arg_of_pericenter": 345.3317,
        "meta_mean_anomaly": 139.0757,
        "meta_ephemeris_type": 0,
        "meta_classification_type": "U",
        "meta_norad_cat_id": 34976,
        "meta_element_set_no": 999,
        "meta_rev_at_epoch": 88326,
        "meta_bstar": 0.0012172168,
        "meta_mean_motion_dot": 8.648e-05,
        "meta_mean_motion_ddot": 0,
        "tle_line1": "1 34976U 93036AFF 25350.30683578  .00008648  00000+0  12172-2 0  9995",
        "tle_line2": "2 34976  74.0567 299.2671 0047814 345.3317 139.0757 14.76647616883263"
      },
      "geometry": {
        "type": "Point",
        "coordinates": [
          -45.11256538926626,
          45.28999293713075
        ]
      }
    },
    {
      "type": "Feature",
      "properties": {
        "norad_id": 34979,
        "name": "COSMOS 2251 DEB",
        "group": "cosmos-2251-debris",
        "lat": 40.467041325902905,
        "lon": 64.94417783410684,
        "alt_km": 660.2500749351166,
        "timestamp": "2025-12-16T21:38:57.571002+00:00",
        "meta_object_name": "COSMOS 2251 DEB",
        "meta_object_id": "1993-036AFJ",
        "meta_epoch": "2025-12-15T19:03:47.068992",
        "meta_mean_motion": 14.79414355,
        "meta_eccentricity": 0.00491466,
        "meta_inclination": 74.0407,
        "meta_ra_of_asc_node": 261.2529,
        "meta_arg_of_pericenter": 338.5418,
        "meta_mean_anomaly": 21.3696,
        "meta_ephemeris_type": 0,
        "meta_classification_type": "U",
        "meta_norad_cat_id": 34979,
        "meta_element_set_no": 999,
        "meta_rev_at_epoch": 88265,
        "meta_bstar": 0.00078199821,
        "meta_mean_motion_dot": 5.924e-05,
        "meta_mean_motion_ddot": 0,
        "tle_line1": "1 34979U 93036AFJ 25349.79429478  .00005924  00000+0  78200-3 0  9995",
        "tle_line2": "2 34979  74.0407 261.2529 0049146 338.5418  21.3696 14.79414355882658"
      },
      "geometry": {
        "type": "Point",
        "coordinates": [
          64.94417783410684,
          40.467041325902905
        ]
      }
    },
    {
      "type": "Feature",
      "properties": {
        "norad_id": 34990,
        "name": "COSMOS 2251 DEB",
        "group": "cosmos-2251-debris",
        "lat": 44.96446240508332,
        "lon": -99.77821050185813,
        "alt_km": 748.7482066185157,
        "timestamp": "2025-12-16T21:38:57.571012+00:00",
        "meta_object_name": "COSMOS 2251 DEB",
        "meta_object_id": "1993-036AFN",
        "meta_epoch": "2025-12-15T10:28:28.781472",
        "meta_mean_motion": 14.42382837,
        "meta_eccentricity": 0.00165597,
        "meta_inclination": 74.0457,
        "meta_ra_of_asc_node": 246.3361,
        "meta_arg_of_pericenter": 308.9911,
        "meta_mean_anomaly": 50.977,
        "meta_ephemeris_type": 0,
        "meta_classification_type": "U",
        "meta_norad_cat_id": 34990,
        "meta_element_set_no": 999,
        "meta_rev_at_epoch": 87385,
        "meta_bstar": 0.00031884459,
        "meta_mean_motion_dot": 1.029e-05,
        "meta_mean_motion_ddot": 0,
        "tle_line1": "1 34990U 93036AFN 25349.43644423  .00001029  00000+0  31884-3 0  9997",
        "tle_line2": "2 34990  74.0457 246.3361 0016559 308.9911  50.9770 14.42382837873857"
      },
      "geometry": {
        "type": "Point",
        "coordinates": [
          -99.77821050185813,
          44.96446240508332
        ]
      }
    },
    {
      "type": "Feature",
      "properties": {
        "norad_id": 34997,
        "name": "COSMOS 2251 DEB",
        "group": "cosmos-2251-debris",
        "lat": -71.41867211346738,
        "lon": -177.2938249394183,
        "alt_km": 680.3406554296316,
        "timestamp": "2025-12-16T21:38:57.571022+00:00",
        "meta_object_name": "COSMOS 2251 DEB",
        "meta_object_id": "1993-036AFV",
        "meta_epoch": "2025-12-14T03:40:01.084512",
        "meta_mean_motion": 14.45585468,
        "meta_eccentricity": 0.00977103,
        "meta_inclination": 73.8806,
        "meta_ra_of_asc_node": 308.5363,
        "meta_arg_of_pericenter": 283.3348,
        "meta_mean_anomaly": 75.6929,
        "meta_ephemeris_type": 0,
        "meta_classification_type": "U",
        "meta_norad_cat_id": 34997,
        "meta_element_set_no": 999,
        "meta_rev_at_epoch": 70767,
        "meta_bstar": 0.0019000145,
        "meta_mean_motion_dot": 7.095e-05,
        "meta_mean_motion_ddot": 0,
        "tle_line1": "1 34997U 93036AFV 25348.15279033  .00007095  00000+0  19000-2 0  9997",
        "tle_line2": "2 34997  73.8806 308.5363 0097710 283.3348  75.6929 14.45585468707674"
      },
      "geometry": {
        "type": "Point",
        "coordinates": [
          -177.2938249394183,
          -71.41867211346738
        ]
      }
    },
    {
      "type": "Feature",
      "properties": {
        "norad_id": 34998,
        "name": "COSMOS 2251 DEB",
        "group": "cosmos-2251-debris",
        "lat": -14.677701105929454,
        "lon": -23.52766020346434,
        "alt_km": 735.3212563189682,
        "timestamp": "2025-12-16T21:38:57.571033+00:00",
        "meta_object_name": "COSMOS 2251 DEB",
        "meta_object_id": "1993-036AFW",
        "meta_epoch": "2025-12-16T05:00:03.999168",
        "meta_mean_motion": 14.49296391,
        "meta_eccentricity": 0.00212626,
        "meta_inclination": 74.0093,
        "meta_ra_of_asc_node": 153.4675,
        "meta_arg_of_pericenter": 298.437,
        "meta_mean_anomaly": 239.2081,
        "meta_ephemeris_type": 0,
        "meta_classification_type": "U",
        "meta_norad_cat_id": 34998,
        "meta_element_set_no": 999,
        "meta_rev_at_epoch": 87470,
        "meta_bstar": 0.0004654885,
        "meta_mean_motion_dot": 1.754e-05,
        "meta_mean_motion_ddot": 0,
        "tle_line1": "1 34998U 93036AFW 25350.20837962  .00001754  00000+0  46549-3 0  9993",
        "tle_line2": "2 34998  74.0093 153.4675 0021262 298.4370 239.2081 14.49296391874704"
      },
      "geometry": {
        "type": "Point",
        "coordinates": [
          -23.52766020346434,
          -14.677701105929454
        ]
      }
    },
    {
      "type": "Feature",
      "properties": {
        "norad_id": 35000,
        "name": "COSMOS 2251 DEB",
        "group": "cosmos-2251-debris",
        "lat": -6.306546628353826,
        "lon": 9.804554892994721,
        "alt_km": 128.13354134350539,
        "timestamp": "2025-12-16T21:38:57.571043+00:00",
        "meta_object_name": "COSMOS 2251 DEB",
        "meta_object_id": "1993-036AFY",
        "meta_epoch": "2025-12-10T00:39:45.535104",
        "meta_mean_motion": 15.84722247,
        "meta_eccentricity": 0.00096992,
        "meta_inclination": 73.9939,
        "meta_ra_of_asc_node": 204.1935,
        "meta_arg_of_pericenter": 175.3945,
        "meta_mean_anomaly": 184.7377,
        "meta_ephemeris_type": 0,
        "meta_classification_type": "U",
        "meta_norad_cat_id": 35000,
        "meta_element_set_no": 999,
        "meta_rev_at_epoch": 88472,
        "meta_bstar": 0.007821664,
        "meta_mean_motion_dot": 0.0209211,
        "meta_mean_motion_ddot": 0,
        "tle_line1": "1 35000U 93036AFY 25344.02761036  .02092110  00000+0  78217-2 0  9993",
        "tle_line2": "2 35000  73.9939 204.1935 0009699 175.3945 184.7377 15.84722247884729"
      },
      "geometry": {
        "type": "Point",
        "coordinates": [
          9.804554892994721,
          -6.306546628353826
        ]
      }
    }
  ]
}